CCSDS_OMM_VERS = 2.0
CREATION_DATE  = 
ORIGINATOR     = 

OBJECT_NAME    = CYGNUS NG-23
OBJECT_ID      = 2025-208A
CENTER_NAME    = EARTH
REF_FRAME      = TEME
TIME_SYSTEM    = UTC
MEAN_ELEMENT_THEORY = SGP/SGP4

EPOCH          = 2025-12-18T05:11:21.338880
MEAN_MOTION    = 15.49648163
ECCENTRICITY   = .00031704
INCLINATION    = 51.6313
RA_OF_ASC_NODE = 115.3593
ARG_OF_PERICENTER = 265.6107
MEAN_ANOMALY   = 94.4519

EPHEMERIS_TYPE = 0
CLASSIFICATION_TYPE = U
NORAD_CAT_ID   = 65616
ELEMENT_SET_NO = 999
REV_AT_EPOCH   = 22
BSTAR          = .15154287E-3
MEAN_MOTION_DOT = .8098E-4
MEAN_MOTION_DDOT = 0

CCSDS_OMM_VERS = 2.0
CREATION_DATE  = 
ORIGINATOR     = 

OBJECT_NAME    = DRAGONFLY
OBJECT_ID      = 1998-067XH
CENTER_NAME    = EARTH
REF_FRAME      = TEME
TIME_SYSTEM    = UTC
MEAN_ELEMENT_THEORY = SGP/SGP4

EPOCH          = 2025-12-17T13:37:12.344736
MEAN_MOTION    = 15.73531298
ECCENTRICITY   = .00072061
INCLINATION    = 51.6243
RA_OF_ASC_NODE = 111.0116
ARG_OF_PERICENTER = 308.5140
MEAN_ANOMALY   = 51.5212

EPHEMERIS_TYPE = 0
CLASSIFICATION_TYPE = U
NORAD_CAT_ID   = 65729
ELEMENT_SET_NO = 999
REV_AT_EPOCH   = 1392
BSTAR          = .11077639E-2
MEAN_MOTION_DOT = .160588E-2
MEAN_MOTION_DDOT = 0

CCSDS_OMM_VERS = 2.0
CREATION_DATE  = 
ORIGINATOR     = 

OBJECT_NAME    = 1998-067XK
OBJECT_ID      = 1998-067XK
CENTER_NAME    = EARTH
REF_FRAME      = TEME
TIME_SYSTEM    = UTC
MEAN_ELEMENT_THEORY = SGP/SGP4

EPOCH          = 2025-12-17T14:00:04.713696
MEAN_MOTION    = 15.66666293
ECCENTRICITY   = .00047593
INCLINATION    = 51.6289
RA_OF_ASC_NODE = 112.6400
ARG_OF_PERICENTER = 277.2608
MEAN_ANOMALY   = 82.7846

EPHEMERIS_TYPE = 0
CLASSIFICATION_TYPE = U
NORAD_CAT_ID   = 65731
ELEMENT_SET_NO = 999
REV_AT_EPOCH   = 1390
BSTAR          = .79228691E-3
MEAN_MOTION_DOT = .85225E-3
MEAN_MOTION_DDOT = 0

CCSDS_OMM_VERS = 2.0
CREATION_DATE  = 
ORIGINATOR     = 

OBJECT_NAME    = RSP-03
OBJECT_ID      = 1998-067XL
CENTER_NAME    = EARTH
REF_FRAME      = TEME
TIME_SYSTEM    = UTC
MEAN_ELEMENT_THEORY = SGP/SGP4

EPOCH          = 2025-12-17T13:53:35.595744
MEAN_MOTION    = 15.69845633
ECCENTRICITY   = .0005617
INCLINATION    = 51.6262
RA_OF_ASC_NODE = 111.8477
ARG_OF_PERICENTER = 283.4279
MEAN_ANOMALY   = 76.6092

EPHEMERIS_TYPE = 0
CLASSIFICATION_TYPE = U
NORAD_CAT_ID   = 65732
ELEMENT_SET_NO = 999
REV_AT_EPOCH   = 1392
BSTAR          = .93703449E-3
MEAN_MOTION_DOT = .115432E-2
MEAN_MOTION_DDOT = 0

CCSDS_OMM_VERS = 2.0
CREATION_DATE  = 
ORIGINATOR     = 

OBJECT_NAME    = GHS-01
OBJECT_ID      = 1998-067XM
CENTER_NAME    = EARTH
REF_FRAME      = TEME
TIME_SYSTEM    = UTC
MEAN_ELEMENT_THEORY = SGP/SGP4

EPOCH          = 2025-12-17T18:18:48.824640
MEAN_MOTION    = 15.77001027
ECCENTRICITY   = .00078519
INCLINATION    = 51.6274
RA_OF_ASC_NODE = 109.3249
ARG_OF_PERICENTER = 313.5973
MEAN_ANOMALY   = 46.4375

EPHEMERIS_TYPE = 0
CLASSIFICATION_TYPE = U
NORAD_CAT_ID   = 65733
ELEMENT_SET_NO = 999
REV_AT_EPOCH   = 1397
BSTAR          = .12359693E-2
MEAN_MOTION_DOT = .209888E-2
MEAN_MOTION_DDOT = 0

CCSDS_OMM_VERS = 2.0
CREATION_DATE  = 
ORIGINATOR     = 

OBJECT_NAME    = YOTSUBA-KULOVER
OBJECT_ID      = 1998-067XN
CENTER_NAME    = EARTH
REF_FRAME      = TEME
TIME_SYSTEM    = UTC
MEAN_ELEMENT_THEORY = SGP/SGP4

EPOCH          = 2025-12-18T06:52:26.759712
MEAN_MOTION    = 15.60190722
ECCENTRICITY   = .00016464
INCLINATION    = 51.6284
RA_OF_ASC_NODE = 112.0835
ARG_OF_PERICENTER = 310.7967
MEAN_ANOMALY   = 49.2884

EPHEMERIS_TYPE = 0
CLASSIFICATION_TYPE = U
NORAD_CAT_ID   = 65941
ELEMENT_SET_NO = 999
REV_AT_EPOCH   = 1072
BSTAR          = .83849398E-3
MEAN_MOTION_DOT = .6971E-3
MEAN_MOTION_DDOT = 0

CCSDS_OMM_VERS = 2.0
CREATION_DATE  = 
ORIGINATOR     = 

OBJECT_NAME    = BOTAN
OBJECT_ID      = 1998-067XP
CENTER_NAME    = EARTH
REF_FRAME      = TEME
TIME_SYSTEM    = UTC
MEAN_ELEMENT_THEORY = SGP/SGP4

EPOCH          = 2025-12-18T06:41:53.060640
MEAN_MOTION    = 15.64025211
ECCENTRICITY   = .0002845
INCLINATION    = 51.6279
RA_OF_ASC_NODE = 111.2842
ARG_OF_PERICENTER = 286.3286
MEAN_ANOMALY   = 73.7396

EPHEMERIS_TYPE = 0
CLASSIFICATION_TYPE = U
NORAD_CAT_ID   = 65942
ELEMENT_SET_NO = 999
REV_AT_EPOCH   = 1073
BSTAR          = .11338772E-2
MEAN_MOTION_DOT = .110248E-2
MEAN_MOTION_DDOT = 0

CCSDS_OMM_VERS = 2.0
CREATION_DATE  = 
ORIGINATOR     = 

OBJECT_NAME    = E-KAGAKU-1
OBJECT_ID      = 1998-067XQ
CENTER_NAME    = EARTH
REF_FRAME      = TEME
TIME_SYSTEM    = UTC
MEAN_ELEMENT_THEORY = SGP/SGP4

EPOCH          = 2025-12-17T17:02:27.271104
MEAN_MOTION    = 15.60109171
ECCENTRICITY   = .0001423
INCLINATION    = 51.6296
RA_OF_ASC_NODE = 114.9884
ARG_OF_PERICENTER = 240.8217
MEAN_ANOMALY   = 119.2634

EPHEMERIS_TYPE = 0
CLASSIFICATION_TYPE = U
NORAD_CAT_ID   = 65943
ELEMENT_SET_NO = 999
REV_AT_EPOCH   = 1063
BSTAR          = .7379067E-3
MEAN_MOTION_DOT = .61026E-3
MEAN_MOTION_DDOT = 0

CCSDS_OMM_VERS = 2.0
CREATION_DATE  = 
ORIGINATOR     = 

OBJECT_NAME    = HRC MONOBLOCK CAMERA
OBJECT_ID      = 1998-067XR
CENTER_NAME    = EARTH
REF_FRAME      = TEME
TIME_SYSTEM    = UTC
MEAN_ELEMENT_THEORY = SGP/SGP4

EPOCH          = 2025-12-17T23:42:04.173120
MEAN_MOTION    = 15.54503599
ECCENTRICITY   = .00027144
INCLINATION    = 51.6291
RA_OF_ASC_NODE = 115.3324
ARG_OF_PERICENTER = 206.9196
MEAN_ANOMALY   = 153.1654

EPHEMERIS_TYPE = 0
CLASSIFICATION_TYPE = U
NORAD_CAT_ID   = 66052
ELEMENT_SET_NO = 999
REV_AT_EPOCH   = 965
BSTAR          = .44715153E-3
MEAN_MOTION_DOT = .29641E-3
MEAN_MOTION_DDOT = 0

CCSDS_OMM_VERS = 2.0
CREATION_DATE  = 
ORIGINATOR     = 

OBJECT_NAME    = HTV-X1
OBJECT_ID      = 2025-241A
CENTER_NAME    = EARTH
REF_FRAME      = TEME
TIME_SYSTEM    = UTC
MEAN_ELEMENT_THEORY = SGP/SGP4

EPOCH          = 2025-12-18T05:11:21.338880
MEAN_MOTION    = 15.49648163
ECCENTRICITY   = .00031704
INCLINATION    = 51.6313
RA_OF_ASC_NODE = 115.3593
ARG_OF_PERICENTER = 265.6107
MEAN_ANOMALY   = 94.4519

EPHEMERIS_TYPE = 0
CLASSIFICATION_TYPE = U
NORAD_CAT_ID   = 66174
ELEMENT_SET_NO = 999
REV_AT_EPOCH   = 51
BSTAR          = .15154287E-3
MEAN_MOTION_DOT = .8098E-4
MEAN_MOTION_DDOT = 0

CCSDS_OMM_VERS = 2.0
CREATION_DATE  = 
ORIGINATOR     = 

OBJECT_NAME    = SZ-21 MODULE
OBJECT_ID      = 2025-246C
CENTER_NAME    = EARTH
REF_FRAME      = TEME
TIME_SYSTEM    = UTC
MEAN_ELEMENT_THEORY = SGP/SGP4

EPOCH          = 2025-12-18T03:55:20.605152
MEAN_MOTION    = 15.62762889
ECCENTRICITY   = .00058648
INCLINATION    = 41.4774
RA_OF_ASC_NODE = 342.9545
ARG_OF_PERICENTER = 288.8905
MEAN_ANOMALY   = 71.1299

EPHEMERIS_TYPE = 0
CLASSIFICATION_TYPE = U
NORAD_CAT_ID   = 66515
ELEMENT_SET_NO = 999
REV_AT_EPOCH   = 529
BSTAR          = .28266875E-3
MEAN_MOTION_DOT = .25921E-3
MEAN_MOTION_DDOT = 0

CCSDS_OMM_VERS = 2.0
CREATION_DATE  = 
ORIGINATOR     = 

OBJECT_NAME    = SHENZHOU-22
OBJECT_ID      = 2025-272A
CENTER_NAME    = EARTH
REF_FRAME      = TEME
TIME_SYSTEM    = UTC
MEAN_ELEMENT_THEORY = SGP/SGP4

EPOCH          = 2025-12-18T06:53:03.575616
MEAN_MOTION    = 15.59417882
ECCENTRICITY   = .00077258
INCLINATION    = 41.4683
RA_OF_ASC_NODE = 343.0261
ARG_OF_PERICENTER = 79.3286
MEAN_ANOMALY   = 280.8422

EPHEMERIS_TYPE = 0
CLASSIFICATION_TYPE = U
NORAD_CAT_ID   = 66645
ELEMENT_SET_NO = 999
REV_AT_EPOCH   = 26357
BSTAR          = .29030456E-3
MEAN_MOTION_DOT = .23377E-3
MEAN_MOTION_DDOT = 0

