CYGNUS NG-23            
1 65616U 25208A   25352.21621920  .00008098  00000+0  15154-3 0  9994
2 65616  51.6313 115.3593 0003170 265.6107  94.4519 15.49648163   223
DRAGONFLY               
1 65729U 98067XH  25351.56750399  .00160588  00000+0  11078-2 0  9995
2 65729  51.6243 111.0116 0007206 308.5140  51.5212 15.73531298 13924
1998-067XK              
1 65731U 98067XK  25351.58338789  .00085225  00000+0  79229-3 0  9992
2 65731  51.6289 112.6400 0004759 277.2608  82.7846 15.66666293 13904
RSP-03                  
1 65732U 98067XL  25351.57888421  .00115432  00000+0  93703-3 0  9992
2 65732  51.6262 111.8477 0005617 283.4279  76.6092 15.69845633 13925
GHS-01                  
1 65733U 98067XM  25351.76306510  .00209888  00000+0  12360-2 0  9996
2 65733  51.6274 109.3249 0007851 313.5973  46.4375 15.77001027 13970
YOTSUBA-KULOVER         
1 65941U 98067XN  25352.28642083  .00069710  00000+0  83849-3 0  9992
2 65941  51.6284 112.0835 0001646 310.7967  49.2884 15.60190722 10721
BOTAN                   
1 65942U 98067XP  25352.27908635  .00110248  00000+0  11339-2 0  9997
2 65942  51.6279 111.2842 0002845 286.3286  73.7396 15.64025211 10734
E-KAGAKU-1              
1 65943U 98067XQ  25351.71003786  .00061026  00000+0  73791-3 0  9999
2 65943  51.6296 114.9884 0001423 240.8217 119.2634 15.60109171 10634
HRC MONOBLOCK CAMERA    
1 66052U 98067XR  25351.98754830  .00029641  00000+0  44715-3 0  9994
2 66052  51.6291 115.3324 0002714 206.9196 153.1654 15.54503599  9652
HTV-X1                  
1 66174U 25241A   25352.21621920  .00008098  00000+0  15154-3 0  9991
2 66174  51.6313 115.3593 0003170 265.6107  94.4519 15.49648163   515
SZ-21 MODULE            
1 66515U 25246C   25352.16343293  .00025921  00000+0  28267-3 0  9996
2 66515  41.4774 342.9545 0005864 288.8905  71.1299 15.62762889  5296
SHENZHOU-22             
1 66645U 25272A   25352.28684694  .00023377  00000+0  29030-3 0  9997
2 66645  41.4683 343.0261 0007725  79.3286 280.8422 15.59417882263579
